CCSDS_OMM_VERS = 2.0
CREATION_DATE  = 
ORIGINATOR     = 

OBJECT_NAME    = STARLINK-36206
OBJECT_ID      = 2025-286F
CENTER_NAME    = EARTH
REF_FRAME      = TEME
TIME_SYSTEM    = UTC
MEAN_ELEMENT_THEORY = SGP/SGP4

EPOCH          = 2025-12-19T18:00:00.998784
MEAN_MOTION    = 15.79345907
ECCENTRICITY   = .0000661
INCLINATION    = 53.1554
RA_OF_ASC_NODE = 15.2076
ARG_OF_PERICENTER = 80.6704
MEAN_ANOMALY   = 196.8267

EPHEMERIS_TYPE = 0
CLASSIFICATION_TYPE = U
NORAD_CAT_ID   = 66930
ELEMENT_SET_NO = 999
REV_AT_EPOCH   = 311
BSTAR          = -.85372E-2
MEAN_MOTION_DOT = -.1397712E-1
MEAN_MOTION_DDOT = 0

CCSDS_OMM_VERS = 2.0
CREATION_DATE  = 
ORIGINATOR     = 

OBJECT_NAME    = STARLINK-36130
OBJECT_ID      = 2025-286G
CENTER_NAME    = EARTH
REF_FRAME      = TEME
TIME_SYSTEM    = UTC
MEAN_ELEMENT_THEORY = SGP/SGP4

EPOCH          = 2025-12-19T18:00:00.998784
MEAN_MOTION    = 15.79325515
ECCENTRICITY   = .0000964
INCLINATION    = 53.1551
RA_OF_ASC_NODE = 15.2031
ARG_OF_PERICENTER = 79.9739
MEAN_ANOMALY   = 199.7494

EPHEMERIS_TYPE = 0
CLASSIFICATION_TYPE = U
NORAD_CAT_ID   = 66931
ELEMENT_SET_NO = 999
REV_AT_EPOCH   = 311
BSTAR          = -.87175E-2
MEAN_MOTION_DOT = -.1422888E-1
MEAN_MOTION_DDOT = 0

CCSDS_OMM_VERS = 2.0
CREATION_DATE  = 
ORIGINATOR     = 

OBJECT_NAME    = STARLINK-36177
OBJECT_ID      = 2025-286H
CENTER_NAME    = EARTH
REF_FRAME      = TEME
TIME_SYSTEM    = UTC
MEAN_ELEMENT_THEORY = SGP/SGP4

EPOCH          = 2025-12-19T18:00:00.998784
MEAN_MOTION    = 15.79303773
ECCENTRICITY   = .0001006
INCLINATION    = 53.1553
RA_OF_ASC_NODE = 15.1984
ARG_OF_PERICENTER = 76.4471
MEAN_ANOMALY   = 205.4698

EPHEMERIS_TYPE = 0
CLASSIFICATION_TYPE = U
NORAD_CAT_ID   = 66932
ELEMENT_SET_NO = 999
REV_AT_EPOCH   = 311
BSTAR          = -.88618E-2
MEAN_MOTION_DOT = -.1442482E-1
MEAN_MOTION_DDOT = 0

CCSDS_OMM_VERS = 2.0
CREATION_DATE  = 
ORIGINATOR     = 

OBJECT_NAME    = STARLINK-36157
OBJECT_ID      = 2025-286J
CENTER_NAME    = EARTH
REF_FRAME      = TEME
TIME_SYSTEM    = UTC
MEAN_ELEMENT_THEORY = SGP/SGP4

EPOCH          = 2025-12-19T18:00:00.998784
MEAN_MOTION    = 15.79282959
ECCENTRICITY   = .0000809
INCLINATION    = 53.1554
RA_OF_ASC_NODE = 15.1940
ARG_OF_PERICENTER = 75.0721
MEAN_ANOMALY   = 209.0150

EPHEMERIS_TYPE = 0
CLASSIFICATION_TYPE = U
NORAD_CAT_ID   = 66933
ELEMENT_SET_NO = 999
REV_AT_EPOCH   = 311
BSTAR          = -.89849E-2
MEAN_MOTION_DOT = -.1458837E-1
MEAN_MOTION_DDOT = 0

CCSDS_OMM_VERS = 2.0
CREATION_DATE  = 
ORIGINATOR     = 

OBJECT_NAME    = STARLINK-36153
OBJECT_ID      = 2025-286K
CENTER_NAME    = EARTH
REF_FRAME      = TEME
TIME_SYSTEM    = UTC
MEAN_ELEMENT_THEORY = SGP/SGP4

EPOCH          = 2025-12-19T18:00:00.998784
MEAN_MOTION    = 15.79253252
ECCENTRICITY   = .0000816
INCLINATION    = 53.1554
RA_OF_ASC_NODE = 15.1892
ARG_OF_PERICENTER = 74.1487
MEAN_ANOMALY   = 212.1205

EPHEMERIS_TYPE = 0
CLASSIFICATION_TYPE = U
NORAD_CAT_ID   = 66934
ELEMENT_SET_NO = 999
REV_AT_EPOCH   = 311
BSTAR          = -.90507E-2
MEAN_MOTION_DOT = -.1466506E-1
MEAN_MOTION_DDOT = 0

CCSDS_OMM_VERS = 2.0
CREATION_DATE  = 
ORIGINATOR     = 

OBJECT_NAME    = STARLINK-36127
OBJECT_ID      = 2025-286L
CENTER_NAME    = EARTH
REF_FRAME      = TEME
TIME_SYSTEM    = UTC
MEAN_ELEMENT_THEORY = SGP/SGP4

EPOCH          = 2025-12-19T18:00:00.998784
MEAN_MOTION    = 15.79202667
ECCENTRICITY   = .0000928
INCLINATION    = 53.1551
RA_OF_ASC_NODE = 15.1846
ARG_OF_PERICENTER = 81.3591
MEAN_ANOMALY   = 207.2401

EPHEMERIS_TYPE = 0
CLASSIFICATION_TYPE = U
NORAD_CAT_ID   = 66935
ELEMENT_SET_NO = 999
REV_AT_EPOCH   = 311
BSTAR          = -.91557E-2
MEAN_MOTION_DOT = -.1478545E-1
MEAN_MOTION_DDOT = 0

CCSDS_OMM_VERS = 2.0
CREATION_DATE  = 
ORIGINATOR     = 

OBJECT_NAME    = STARLINK-36160
OBJECT_ID      = 2025-286M
CENTER_NAME    = EARTH
REF_FRAME      = TEME
TIME_SYSTEM    = UTC
MEAN_ELEMENT_THEORY = SGP/SGP4

EPOCH          = 2025-12-19T18:00:00.998784
MEAN_MOTION    = 15.79183862
ECCENTRICITY   = .0000814
INCLINATION    = 53.1552
RA_OF_ASC_NODE = 15.1806
ARG_OF_PERICENTER = 70.5018
MEAN_ANOMALY   = 220.1958

EPHEMERIS_TYPE = 0
CLASSIFICATION_TYPE = U
NORAD_CAT_ID   = 66936
ELEMENT_SET_NO = 999
REV_AT_EPOCH   = 311
BSTAR          = -.92137E-2
MEAN_MOTION_DOT = -.1485605E-1
MEAN_MOTION_DDOT = 0

CCSDS_OMM_VERS = 2.0
CREATION_DATE  = 
ORIGINATOR     = 

OBJECT_NAME    = STARLINK-36165
OBJECT_ID      = 2025-286N
CENTER_NAME    = EARTH
REF_FRAME      = TEME
TIME_SYSTEM    = UTC
MEAN_ELEMENT_THEORY = SGP/SGP4

EPOCH          = 2025-12-19T18:00:00.998784
MEAN_MOTION    = 15.79160712
ECCENTRICITY   = .0000929
INCLINATION    = 53.1552
RA_OF_ASC_NODE = 15.1757
ARG_OF_PERICENTER = 67.1163
MEAN_ANOMALY   = 225.7020

EPHEMERIS_TYPE = 0
CLASSIFICATION_TYPE = U
NORAD_CAT_ID   = 66937
ELEMENT_SET_NO = 999
REV_AT_EPOCH   = 311
BSTAR          = -.92684E-2
MEAN_MOTION_DOT = -.1492043E-1
MEAN_MOTION_DDOT = 0

CCSDS_OMM_VERS = 2.0
CREATION_DATE  = 
ORIGINATOR     = 

OBJECT_NAME    = STARLINK-36155
OBJECT_ID      = 2025-286P
CENTER_NAME    = EARTH
REF_FRAME      = TEME
TIME_SYSTEM    = UTC
MEAN_ELEMENT_THEORY = SGP/SGP4

EPOCH          = 2025-12-19T18:00:00.998784
MEAN_MOTION    = 15.79134198
ECCENTRICITY   = .0000833
INCLINATION    = 53.1551
RA_OF_ASC_NODE = 15.1709
ARG_OF_PERICENTER = 78.2709
MEAN_ANOMALY   = 216.6768

EPHEMERIS_TYPE = 0
CLASSIFICATION_TYPE = U
NORAD_CAT_ID   = 66938
ELEMENT_SET_NO = 999
REV_AT_EPOCH   = 311
BSTAR          = -.93145E-2
MEAN_MOTION_DOT = -.1496899E-1
MEAN_MOTION_DDOT = 0

CCSDS_OMM_VERS = 2.0
CREATION_DATE  = 
ORIGINATOR     = 

OBJECT_NAME    = STARLINK-36154
OBJECT_ID      = 2025-286Q
CENTER_NAME    = EARTH
REF_FRAME      = TEME
TIME_SYSTEM    = UTC
MEAN_ELEMENT_THEORY = SGP/SGP4

EPOCH          = 2025-12-19T18:00:00.998784
MEAN_MOTION    = 15.79059632
ECCENTRICITY   = .0000913
INCLINATION    = 53.1550
RA_OF_ASC_NODE = 15.1619
ARG_OF_PERICENTER = 72.9413
MEAN_ANOMALY   = 226.4237

EPHEMERIS_TYPE = 0
CLASSIFICATION_TYPE = U
NORAD_CAT_ID   = 66939
ELEMENT_SET_NO = 999
REV_AT_EPOCH   = 311
BSTAR          = -.94671E-2
MEAN_MOTION_DOT = -.1513932E-1
MEAN_MOTION_DDOT = 0

CCSDS_OMM_VERS = 2.0
CREATION_DATE  = 
ORIGINATOR     = 

OBJECT_NAME    = STARLINK-36121
OBJECT_ID      = 2025-286R
CENTER_NAME    = EARTH
REF_FRAME      = TEME
TIME_SYSTEM    = UTC
MEAN_ELEMENT_THEORY = SGP/SGP4

EPOCH          = 2025-12-19T18:00:00.998784
MEAN_MOTION    = 15.79041335
ECCENTRICITY   = .0000648
INCLINATION    = 53.1548
RA_OF_ASC_NODE = 15.1573
ARG_OF_PERICENTER = 82.7701
MEAN_ANOMALY   = 218.6709

EPHEMERIS_TYPE = 0
CLASSIFICATION_TYPE = U
NORAD_CAT_ID   = 66940
ELEMENT_SET_NO = 999
REV_AT_EPOCH   = 311
BSTAR          = -.95088E-2
MEAN_MOTION_DOT = -.1518504E-1
MEAN_MOTION_DDOT = 0

CCSDS_OMM_VERS = 2.0
CREATION_DATE  = 
ORIGINATOR     = 

OBJECT_NAME    = STARLINK-36088
OBJECT_ID      = 2025-286S
CENTER_NAME    = EARTH
REF_FRAME      = TEME
TIME_SYSTEM    = UTC
MEAN_ELEMENT_THEORY = SGP/SGP4

EPOCH          = 2025-12-19T18:00:00.998784
MEAN_MOTION    = 15.79085022
ECCENTRICITY   = .0000653
INCLINATION    = 53.1549
RA_OF_ASC_NODE = 15.1660
ARG_OF_PERICENTER = 81.5965
MEAN_ANOMALY   = 215.6384

EPHEMERIS_TYPE = 0
CLASSIFICATION_TYPE = U
NORAD_CAT_ID   = 66941
ELEMENT_SET_NO = 999
REV_AT_EPOCH   = 311
BSTAR          = -.93952E-2
MEAN_MOTION_DOT = -.1505199E-1
MEAN_MOTION_DDOT = 0

