STARLINK-36206          
1 66930U 25286F   25353.75001156 -.01397712  00000+0 -85372-2 0  9998
2 66930  53.1554  15.2076 0000661  80.6704 196.8267 15.79345907  3112
STARLINK-36130          
1 66931U 25286G   25353.75001156 -.01422888  00000+0 -87175-2 0  9995
2 66931  53.1551  15.2031 0000964  79.9739 199.7494 15.79325515  3113
STARLINK-36177          
1 66932U 25286H   25353.75001156 -.01442482  00000+0 -88618-2 0  9991
2 66932  53.1553  15.1984 0001006  76.4471 205.4698 15.79303773  3118
STARLINK-36157          
1 66933U 25286J   25353.75001156 -.01458837  00000+0 -89849-2 0  9990
2 66933  53.1554  15.1940 0000809  75.0721 209.0150 15.79282959  3110
STARLINK-36153          
1 66934U 25286K   25353.75001156 -.01466506  00000+0 -90507-2 0  9996
2 66934  53.1554  15.1892 0000816  74.1487 212.1205 15.79253252  3114
STARLINK-36127          
1 66935U 25286L   25353.75001156 -.01478545  00000+0 -91557-2 0  9999
2 66935  53.1551  15.1846 0000928  81.3591 207.2401 15.79202667  3118
STARLINK-36160          
1 66936U 25286M   25353.75001156 -.01485605  00000+0 -92137-2 0  9990
2 66936  53.1552  15.1806 0000814  70.5018 220.1958 15.79183862  3110
STARLINK-36165          
1 66937U 25286N   25353.75001156 -.01492043  00000+0 -92684-2 0  9992
2 66937  53.1552  15.1757 0000929  67.1163 225.7020 15.79160712  3116
STARLINK-36155          
1 66938U 25286P   25353.75001156 -.01496899  00000+0 -93145-2 0  9999
2 66938  53.1551  15.1709 0000833  78.2709 216.6768 15.79134198  3113
STARLINK-36154          
1 66939U 25286Q   25353.75001156 -.01513932  00000+0 -94671-2 0  9993
2 66939  53.1550  15.1619 0000913  72.9413 226.4237 15.79059632  3114
STARLINK-36121          
1 66940U 25286R   25353.75001156 -.01518504  00000+0 -95088-2 0  9998
2 66940  53.1548  15.1573 0000648  82.7701 218.6709 15.79041335  3114
STARLINK-36088          
1 66941U 25286S   25353.75001156 -.01505199  00000+0 -93952-2 0  9993
2 66941  53.1549  15.1660 0000653  81.5965 215.6384 15.79085022  3115
